{
    "links": {
        "self": "http://www.neowsapp.com/rest/v1/neo/3986769?api_key=iIulBulltgU6a56xZRHN4H3l9WmuAYTsLGpBGhQ2"
    },
    "id": "3986769",
    "neo_reference_id": "3986769",
    "name": "(2020 BR1)",
    "designation": "2020 BR1",
    "nasa_jpl_url": "http://ssd.jpl.nasa.gov/sbdb.cgi?sstr=3986769",
    "absolute_magnitude_h": 22.234,
    "estimated_diameter": {
        "kilometers": {
            "estimated_diameter_min": 0.0950068626,
            "estimated_diameter_max": 0.2124418031
        },
        "meters": {
            "estimated_diameter_min": 95.0068625851,
            "estimated_diameter_max": 212.4418030693
        },
        "miles": {
            "estimated_diameter_min": 0.0590345092,
            "estimated_diameter_max": 0.1320051756
        },
        "feet": {
            "estimated_diameter_min": 311.7023150437,
            "estimated_diameter_max": 696.9875651818
        }
    },
    "is_potentially_hazardous_asteroid": false,
    "close_approach_data": [
        {
            "close_approach_date": "1997-01-27",
            "close_approach_date_full": "1997-Jan-27 12:39",
            "epoch_date_close_approach": 854368740000,
            "relative_velocity": {
                "kilometers_per_second": "15.3479239644",
                "kilometers_per_hour": "55252.526271763",
                "miles_per_hour": "34331.7711159185"
            },
            "miss_distance": {
                "astronomical": "0.3553864319",
                "lunar": "138.2453220091",
                "kilometers": "53165053.239140053",
                "miles": "33035232.2187286114"
            },
            "orbiting_body": "Earth"
        },
        {
            "close_approach_date": "2020-01-27",
            "close_approach_date_full": "2020-Jan-27 03:36",
            "epoch_date_close_approach": 1580096160000,
            "relative_velocity": {
                "kilometers_per_second": "14.8070080621",
                "kilometers_per_hour": "53305.2290235737",
                "miles_per_hour": "33121.79633412"
            },
            "miss_distance": {
                "astronomical": "0.3709106253",
                "lunar": "144.2842332417",
                "kilometers": "55487439.505248111",
                "miles": "34478296.1287254918"
            },
            "orbiting_body": "Earth"
        },
        {
            "close_approach_date": "2043-01-25",
            "close_approach_date_full": "2043-Jan-25 08:56",
            "epoch_date_close_approach": 2305788960000,
            "relative_velocity": {
                "kilometers_per_second": "14.4562676072",
                "kilometers_per_hour": "52042.5633860694",
                "miles_per_hour": "32337.2250106385"
            },
            "miss_distance": {
                "astronomical": "0.4014206928",
                "lunar": "156.1526494992",
                "kilometers": "60051680.616804336",
                "miles": "37314384.0443023968"
            },
            "orbiting_body": "Earth"
        }
    ],
    "orbital_data": {
        "orbit_id": "5",
        "orbit_determination_date": "2020-02-20 04:52:35",
        "first_observation_date": "2020-01-18",
        "last_observation_date": "2020-02-20",
        "data_arc_in_days": 33,
        "observations_used": 35,
        "orbit_uncertainty": "7",
        "minimum_orbit_intersection": ".355814",
        "jupiter_tisserand_invariant": "3.756",
        "epoch_osculation": "2459000.5",
        "eccentricity": ".3935043556471622",
        "semi_major_axis": "1.87008322389364",
        "inclination": "28.00730875006441",
        "ascending_node_longitude": "107.3176294543198",
        "orbital_period": "934.0923778778874",
        "perihelion_distance": "1.134197329868805",
        "perihelion_argument": "75.41478549638063",
        "aphelion_distance": "2.605969117918474",
        "perihelion_time": "2458943.020736790108",
        "mean_anomaly": "22.15255711921265",
        "mean_motion": ".3854008538404563",
        "equinox": "J2000",
        "orbit_class": {
            "orbit_class_type": "AMO",
            "orbit_class_description": "Near-Earth asteroid orbits similar to that of 1221 Amor",
            "orbit_class_range": "1.017 AU < q (perihelion) < 1.3 AU"
        }
    },
    "is_sentry_object": false
}